{
    "links": {
        "self": "http://www.neowsapp.com/rest/v1/neo/3830870?api_key=iIulBulltgU6a56xZRHN4H3l9WmuAYTsLGpBGhQ2"
    },
    "id": "3830870",
    "neo_reference_id": "3830870",
    "name": "(2018 SS1)",
    "designation": "2018 SS1",
    "nasa_jpl_url": "http://ssd.jpl.nasa.gov/sbdb.cgi?sstr=3830870",
    "absolute_magnitude_h": 23.8,
    "estimated_diameter": {
        "kilometers": {
            "estimated_diameter_min": 0.046190746,
            "estimated_diameter_max": 0.1032856481
        },
        "meters": {
            "estimated_diameter_min": 46.1907460282,
            "estimated_diameter_max": 103.2856480504
        },
        "miles": {
            "estimated_diameter_min": 0.0287015901,
            "estimated_diameter_max": 0.0641787064
        },
        "feet": {
            "estimated_diameter_min": 151.544447199,
            "estimated_diameter_max": 338.8636855496
        }
    },
    "is_potentially_hazardous_asteroid": false,
    "close_approach_data": [
        {
            "close_approach_date": "2018-09-27",
            "close_approach_date_full": "2018-Sep-27 03:10",
            "epoch_date_close_approach": 1538017800000,
            "relative_velocity": {
                "kilometers_per_second": "14.2847131845",
                "kilometers_per_hour": "51424.9674641402",
                "miles_per_hour": "31953.4749223709"
            },
            "miss_distance": {
                "astronomical": "0.0167019414",
                "lunar": "6.4970552046",
                "kilometers": "2498574.858304818",
                "miles": "1552542.4246017684"
            },
            "orbiting_body": "Earth"
        }
    ],
    "orbital_data": {
        "orbit_id": "8",
        "orbit_determination_date": "2018-10-20 06:54:40",
        "first_observation_date": "2018-09-22",
        "last_observation_date": "2018-10-07",
        "data_arc_in_days": 15,
        "observations_used": 123,
        "orbit_uncertainty": "7",
        "minimum_orbit_intersection": ".0167253",
        "jupiter_tisserand_invariant": "4.361",
        "epoch_osculation": "2459000.5",
        "eccentricity": ".3321140536155127",
        "semi_major_axis": "1.515232544113406",
        "inclination": "24.34829904100583",
        "ascending_node_longitude": "183.8005286427896",
        "orbital_period": "681.2670134318038",
        "perihelion_distance": "1.012002521717757",
        "perihelion_argument": "166.7975737092575",
        "aphelion_distance": "2.018462566509056",
        "perihelion_time": "2459058.237145071632",
        "mean_anomaly": "329.4901238193178",
        "mean_motion": ".5284271701143163",
        "equinox": "J2000",
        "orbit_class": {
            "orbit_class_type": "APO",
            "orbit_class_description": "Near-Earth asteroid orbits which cross the Earth’s orbit similar to that of 1862 Apollo",
            "orbit_class_range": "a (semi-major axis) > 1.0 AU; q (perihelion) < 1.017 AU"
        }
    },
    "is_sentry_object": false
}